OBJECT_NAME,OBJECT_ID,EPOCH,MEAN_MOTION,ECCENTRICITY,INCLINATION,RA_OF_ASC_NODE,ARG_OF_PERICENTER,MEAN_ANOMALY,EPHEMERIS_TYPE,CLASSIFICATION_TYPE,NORAD_CAT_ID,ELEMENT_SET_NO,REV_AT_EPOCH,BSTAR,MEAN_MOTION_DOT,MEAN_MOTION_DDOT
EYESAT A (AO-27),1993-061C,2026-06-19T04:01:13.284768,14.30942746,.00095416,98.6880,237.5804,94.6825,265.5447,0,U,22825,999,70728,.44293856E-4,.72E-6,0
ITAMSAT (IO-26),1993-061D,2026-06-19T10:13:21.951264,14.31369768,.00100309,98.6829,237.7564,79.0744,281.1567,0,U,22826,999,70763,.44099784E-4,.72E-6,0
RADIO ROSTO (RS15),1994-085A,2026-06-19T14:22:57.410976,11.27583459,.01560101,64.8186,299.3149,3.4301,356.7657,0,U,23439,999,29617,.19507609E-3,-.36E-6,0
JAS-2 (FO-29),1996-046B,2026-06-19T07:22:34.593312,13.53274520,.0350921,98.5238,18.8890,90.9460,273.1898,0,U,24278,999,47345,.19675932E-4,-.13E-6,0
FORTE,1997-047A,2026-06-19T06:23:33.075456,14.27945867,.00246299,69.9539,9.3247,274.8390,84.9919,0,U,24920,999,49898,.70249446E-4,.117E-5,0
TECHSAT 1B (GO-32),1998-043D,2026-06-19T14:14:07.076544,14.24428772,.0001179,99.0068,163.4125,158.0468,202.0760,0,U,25397,999,45167,.32334137E-4,.28E-6,0
ISS (ZARYA),1998-067A,2026-06-19T12:16:41.638656,15.49315858,.00045965,51.6332,288.5889,205.0015,155.0751,0,U,25544,999,57211,.1560528E-3,.8252E-4,0
IMAGE,2000-017A,2026-06-11T08:17:58.695072,1.68665984,.7436383,94.2241,315.2958,288.4674,8.8959,0,U,26113,999,16140,.22926E-1,.11E-6,0
CLUSTER II-FM7 (SAMBA),2000-041A,2026-06-21T14:25:43.507200,0.44827446,.90601568,149.9156,51.6296,268.8489,359.5243,0,U,26410,999,2032,0,.47E-4,0
CLUSTER II-FM8 (TANGO),2000-045B,2026-06-17T10:31:03.323424,0.44409350,.90607958,150.1515,52.0898,269.1034,2.6615,0,U,26464,999,2031,0,.13202E-3,0
ODIN,2001-007A,2026-06-19T13:41:30.267744,15.76539587,.00067913,97.3813,211.6668,140.5519,219.6242,0,U,26702,999,38977,.10417176E-2,.168116E-2,0
OMNI-M1,2001-026A,2026-06-16T05:01:03.889056,3.92401638,.0014194,44.8307,245.4893,53.4474,306.7446,0,U,26857,999,20553,0,-.1E-7,0
PCSAT (NO-44),2001-043C,2026-06-19T11:08:27.905568,14.31956812,.00060713,67.0503,238.3826,264.6525,95.3885,0,U,26931,999,29077,.56709866E-4,.69E-6,0
PROBA-1,2001-049B,2026-06-19T14:13:21.351072,15.07498751,.00564521,97.9594,179.2094,113.9693,246.7459,0,U,26958,999,34398,.59329737E-4,.861E-5,0
SAUDISAT 1C (SO-50),2002-058C,2026-06-19T13:59:18.849984,14.83051246,.00751667,64.5513,121.5728,262.0349,97.2222,0,U,27607,999,26481,.10364076E-3,.73E-5,0
CORIOLIS,2003-001A,2026-06-19T14:13:54.585696,14.19945392,.00135124,98.7125,177.4411,201.5448,158.5161,0,U,27640,999,21456,.51486909E-4,.66E-6,0
CUTE-1 (CO-55),2003-031E,2026-06-19T13:35:11.395968,14.24336935,.00096891,98.6736,179.0951,171.1603,188.9749,0,U,27844,999,19201,.10623568E-3,.202E-5,0
CUBESAT XI-IV (CO-57),2003-031J,2026-06-19T11:39:04.784256,14.23621824,.0009188,98.6765,178.7263,190.0962,170.0034,0,U,27848,999,19170,.91470744E-4,.165E-5,0
MOZHAETS 4 (RS22),2003-042A,2026-06-19T15:48:50.159232,14.73470070,.00099201,98.3467,355.0870,260.7550,171.6812,0,U,27939,999,21591,.82899116E-4,.484E-5,0
